start=new Date('2022-04-08T00:00:00.000Z').valueOf();
sats=[{"ARG_OF_PERICENTER":"57.4767","CENTER_NAME":"EARTH","TLE_LINE1":"1 49728U 21115E   22097.91667824  .00054491  00000-0  34176-2 0  9999","APOAPSIS":"540.858","TLE_LINE2":"2 49728  53.2166 106.6063 0001512  57.4767 280.2074 15.08818340  3589","MEAN_ANOMALY":"280.2074","RCS_SIZE":"LARGE","OBJECT_ID":"2021-115E","MEAN_MOTION_DOT":"0.00054491","PERIOD":"95.439","SITE":"AFETR","MEAN_ELEMENT_THEORY":"SGP4","GP_ID":"200701937","MEAN_MOTION":"15.08818340","INCLINATION":"53.2166","BSTAR":"0.00341760000000","PERIAPSIS":"538.766","EPHEMERIS_TYPE":"0","CLASSIFICATION_TYPE":"U","LAUNCH_DATE":"2021-12-02","NORAD_CAT_ID":"49728","EPOCH":"2022-04-07T22:00:00.999936","COUNTRY_CODE":"US","OBJECT_TYPE":"PAYLOAD","RA_OF_ASC_NODE":"106.6063","MEAN_MOTION_DDOT":"0.0000000000000","REV_AT_EPOCH":"358","OBJECT_NAME":"STARLINK-3240","SEMIMAJOR_AXIS":"6917.947","DECAY_DATE":null,"TIME_SYSTEM":"UTC","ECCENTRICITY":"0.00015120","FILE":"3392478","ELEMENT_SET_NO":"999","REF_FRAME":"TEME"},{"RCS_SIZE":"LARGE","MEAN_ANOMALY":"281.4335","OBJECT_ID":"2021-115F","CENTER_NAME":"EARTH","ARG_OF_PERICENTER":"36.2069","TLE_LINE1":"1 49729U 21115F   22097.91667824  .00052782  00000-0  33118-2 0  9996","APOAPSIS":"541.514","TLE_LINE2":"2 49729  53.2155 106.6053 0002455  36.2069 281.4335 15.08816916  3562","MEAN_MOTION":"15.08816916","PERIOD":"95.439","MEAN_MOTION_DOT":"0.00052782","SITE":"AFETR","MEAN_ELEMENT_THEORY":"SGP4","GP_ID":"200702187","BSTAR":"0.00331180000000","PERIAPSIS":"538.118","INCLINATION":"53.2155","NORAD_CAT_ID":"49729","EPOCH":"2022-04-07T22:00:00.999936","COUNTRY_CODE":"US","OBJECT_TYPE":"PAYLOAD","EPHEMERIS_TYPE":"0","CLASSIFICATION_TYPE":"U","LAUNCH_DATE":"2021-12-02","MEAN_MOTION_DDOT":"0.0000000000000","REV_AT_EPOCH":"356","RA_OF_ASC_NODE":"106.6053","SEMIMAJOR_AXIS":"6917.951","DECAY_DATE":null,"OBJECT_NAME":"STARLINK-3251","TIME_SYSTEM":"UTC","FILE":"3392478","ECCENTRICITY":"0.00024550","ELEMENT_SET_NO":"999","REF_FRAME":"TEME"},{"OBJECT_NAME":"STARLINK-3249","SEMIMAJOR_AXIS":"6917.962","DECAY_DATE":null,"RA_OF_ASC_NODE":"106.6036","MEAN_MOTION_DDOT":"0.0000000000000","REV_AT_EPOCH":"356","ELEMENT_SET_NO":"999","REF_FRAME":"TEME","TIME_SYSTEM":"UTC","FILE":"3392478","ECCENTRICITY":"0.00021760","SITE":"AFETR","PERIOD":"95.439","MEAN_MOTION_DOT":"0.00048582","GP_ID":"200703434","MEAN_ELEMENT_THEORY":"SGP4","MEAN_MOTION":"15.08813436","ARG_OF_PERICENTER":"39.5532","CENTER_NAME":"EARTH","TLE_LINE2":"2 49730  53.2139 106.6036 0002176  39.5532 238.1102 15.08813436  3563","TLE_LINE1":"1 49730U 21115G   22097.91667824  .00048582  00000-0  30518-2 0  9992","APOAPSIS":"541.332","OBJECT_ID":"2021-115G","MEAN_ANOMALY":"238.1102","RCS_SIZE":"LARGE","CLASSIFICATION_TYPE":"U","EPHEMERIS_TYPE":"0","LAUNCH_DATE":"2021-12-02","NORAD_CAT_ID":"49730","COUNTRY_CODE":"US","OBJECT_TYPE":"PAYLOAD","EPOCH":"2022-04-07T22:00:00.999936","INCLINATION":"53.2139","PERIAPSIS":"538.321","BSTAR":"0.00305180000000"},{"TLE_LINE2":"2 49731  53.2161 106.6099 0002284  43.9127 253.7144 15.08825466  3562","TLE_LINE1":"1 49731U 21115H   22097.91667824  .00050962  00000-0  31983-2 0  9995","APOAPSIS":"541.370","CENTER_NAME":"EARTH","ARG_OF_PERICENTER":"43.9127","OBJECT_ID":"2021-115H","RCS_SIZE":"LARGE","MEAN_ANOMALY":"253.7144","GP_ID":"200703689","MEAN_ELEMENT_THEORY":"SGP4","SITE":"AFETR","MEAN_MOTION_DOT":"0.00050962","PERIOD":"95.438","MEAN_MOTION":"15.08825466","INCLINATION":"53.2161","PERIAPSIS":"538.210","BSTAR":"0.00319830000000","LAUNCH_DATE":"2021-12-02","CLASSIFICATION_TYPE":"U","EPHEMERIS_TYPE":"0","COUNTRY_CODE":"US","OBJECT_TYPE":"PAYLOAD","EPOCH":"2022-04-07T22:00:00.999936","NORAD_CAT_ID":"49731","RA_OF_ASC_NODE":"106.6099","REV_AT_EPOCH":"356","MEAN_MOTION_DDOT":"0.0000000000000","OBJECT_NAME":"STARLINK-3228","DECAY_DATE":null,"SEMIMAJOR_AXIS":"6917.925","FILE":"3392478","ECCENTRICITY":"0.00022840","TIME_SYSTEM":"UTC","REF_FRAME":"TEME","ELEMENT_SET_NO":"999"},{"TIME_SYSTEM":"UTC","ECCENTRICITY":"0.00018000","FILE":"3392478","ELEMENT_SET_NO":"999","REF_FRAME":"TEME","RA_OF_ASC_NODE":"106.6118","MEAN_MOTION_DDOT":"0.0000000000000","REV_AT_EPOCH":"358","OBJECT_NAME":"STARLINK-3246","SEMIMAJOR_AXIS":"6917.915","DECAY_DATE":null,"INCLINATION":"53.2105","PERIAPSIS":"538.535","BSTAR":"0.00286310000000","CLASSIFICATION_TYPE":"U","EPHEMERIS_TYPE":"0","LAUNCH_DATE":"2021-12-02","NORAD_CAT_ID":"49732","COUNTRY_CODE":"US","OBJECT_TYPE":"PAYLOAD","EPOCH":"2022-04-07T22:00:00.999936","ARG_OF_PERICENTER":"48.1494","CENTER_NAME":"EARTH","TLE_LINE2":"2 49732  53.2105 106.6118 0001800  48.1494 169.4842 15.08828576  3585","APOAPSIS":"541.026","TLE_LINE1":"1 49732U 21115J   22097.91667824  .00045559  00000-0  28631-2 0  9998","OBJECT_ID":"2021-115J","RCS_SIZE":"LARGE","MEAN_ANOMALY":"169.4842","SITE":"AFETR","MEAN_MOTION_DOT":"0.00045559","PERIOD":"95.438","GP_ID":"200702438","MEAN_ELEMENT_THEORY":"SGP4","MEAN_MOTION":"15.08828576"},{"OBJECT_TYPE":"PAYLOAD","COUNTRY_CODE":"US","EPOCH":"2022-04-07T22:00:00.999936","NORAD_CAT_ID":"49733","LAUNCH_DATE":"2021-12-02","CLASSIFICATION_TYPE":"U","EPHEMERIS_TYPE":"0","PERIAPSIS":"538.406","BSTAR":"0.00303850000000","INCLINATION":"53.2124","MEAN_MOTION":"15.08815738","GP_ID":"200702688","MEAN_ELEMENT_THEORY":"SGP4","SITE":"AFETR","PERIOD":"95.439","MEAN_MOTION_DOT":"0.00048370","OBJECT_ID":"2021-115K","MEAN_ANOMALY":"219.9553","RCS_SIZE":"LARGE","TLE_LINE2":"2 49733  53.2124 106.6118 0002044  37.7177 219.9553 15.08815738  3564","TLE_LINE1":"1 49733U 21115K   22097.91667824  .00048370  00000-0  30385-2 0  9992","APOAPSIS":"541.234","CENTER_NAME":"EARTH","ARG_OF_PERICENTER":"37.7177","REF_FRAME":"TEME","ELEMENT_SET_NO":"999","FILE":"3392478","ECCENTRICITY":"0.00020440","TIME_SYSTEM":"UTC","DECAY_DATE":null,"SEMIMAJOR_AXIS":"6917.955","OBJECT_NAME":"STARLINK-3252","REV_AT_EPOCH":"356","MEAN_MOTION_DDOT":"0.0000000000000","RA_OF_ASC_NODE":"106.6118"},{"REF_FRAME":"TEME","ELEMENT_SET_NO":"999","FILE":"3392478","ECCENTRICITY":"0.00020330","TIME_SYSTEM":"UTC","OBJECT_NAME":"STARLINK-3238","DECAY_DATE":null,"SEMIMAJOR_AXIS":"6917.939","RA_OF_ASC_NODE":"96.5854","REV_AT_EPOCH":"356","MEAN_MOTION_DDOT":"0.0000000000000","LAUNCH_DATE":"2021-12-02","CLASSIFICATION_TYPE":"U","EPHEMERIS_TYPE":"0","OBJECT_TYPE":"PAYLOAD","COUNTRY_CODE":"US","EPOCH":"2022-04-07T22:00:00.999936","NORAD_CAT_ID":"49734","INCLINATION":"53.2179","PERIAPSIS":"538.398","BSTAR":"0.00273400000000","GP_ID":"200702934","MEAN_ELEMENT_THEORY":"SGP4","SITE":"AFETR","PERIOD":"95.439","MEAN_MOTION_DOT":"0.00043470","MEAN_MOTION":"15.08820778","TLE_LINE2":"2 49734  53.2179  96.5854 0002033  43.8460 108.8186 15.08820778  3568","APOAPSIS":"541.211","TLE_LINE1":"1 49734U 21115L   22097.91667824  .00043470  00000-0  27340-2 0  9996","CENTER_NAME":"EARTH","ARG_OF_PERICENTER":"43.8460","OBJECT_ID":"2021-115L","MEAN_ANOMALY":"108.8186","RCS_SIZE":"LARGE"},{"REF_FRAME":"TEME","ELEMENT_SET_NO":"999","TIME_SYSTEM":"UTC","FILE":"3392478","ECCENTRICITY":"0.00022010","SEMIMAJOR_AXIS":"6917.882","DECAY_DATE":null,"OBJECT_NAME":"STARLINK-3113","MEAN_MOTION_DDOT":"0.0000000000000","REV_AT_EPOCH":"356","RA_OF_ASC_NODE":"106.6056","NORAD_CAT_ID":"49735","COUNTRY_CODE":"US","OBJECT_TYPE":"PAYLOAD","EPOCH":"2022-04-07T22:00:00.999936","CLASSIFICATION_TYPE":"U","EPHEMERIS_TYPE":"0","LAUNCH_DATE":"2021-12-02","PERIAPSIS":"538.224","BSTAR":"0.00159020000000","INCLINATION":"53.2125","MEAN_MOTION":"15.08839507","SITE":"AFETR","MEAN_MOTION_DOT":"0.00025111","PERIOD":"95.438","GP_ID":"200703189","MEAN_ELEMENT_THEORY":"SGP4","OBJECT_ID":"2021-115M","RCS_SIZE":"LARGE","MEAN_ANOMALY":"196.3245","ARG_OF_PERICENTER":"41.3321","CENTER_NAME":"EARTH","TLE_LINE2":"2 49735  53.2125 106.6056 0002201  41.3321 196.3245 15.08839507  3561","TLE_LINE1":"1 49735U 21115M   22097.91667824  .00025111  00000-0  15902-2 0  9990","APOAPSIS":"541.270"},{"BSTAR":"0.00285720000000","PERIAPSIS":"538.247","INCLINATION":"53.2172","NORAD_CAT_ID":"49736","EPOCH":"2022-04-07T22:00:00.999936","OBJECT_TYPE":"PAYLOAD","COUNTRY_CODE":"US","EPHEMERIS_TYPE":"0","CLASSIFICATION_TYPE":"U","LAUNCH_DATE":"2021-12-02","RCS_SIZE":"LARGE","MEAN_ANOMALY":"78.6106","OBJECT_ID":"2021-115N","CENTER_NAME":"EARTH","ARG_OF_PERICENTER":"34.0570","APOAPSIS":"541.380","TLE_LINE1":"1 49736U 21115N   22097.91667824  .00045451  00000-0  28572-2 0  9997","TLE_LINE2":"2 49736  53.2172  96.5855 0002264  34.0570  78.6106 15.08817727  3571","MEAN_MOTION":"15.08817727","PERIOD":"95.439","MEAN_MOTION_DOT":"0.00045451","SITE":"AFETR","MEAN_ELEMENT_THEORY":"SGP4","GP_ID":"200701938","TIME_SYSTEM":"UTC","FILE":"3392478","ECCENTRICITY":"0.00022640","REF_FRAME":"TEME","ELEMENT_SET_NO":"999","MEAN_MOTION_DDOT":"0.0000000000000","REV_AT_EPOCH":"357","RA_OF_ASC_NODE":"96.5855","SEMIMAJOR_AXIS":"6917.948","DECAY_DATE":null,"OBJECT_NAME":"STARLINK-3148"},{"TIME_SYSTEM":"UTC","ECCENTRICITY":"0.00020680","FILE":"3392478","REF_FRAME":"TEME","ELEMENT_SET_NO":"999","MEAN_MOTION_DDOT":"0.0000000000000","REV_AT_EPOCH":"356","RA_OF_ASC_NODE":"96.5905","SEMIMAJOR_AXIS":"6917.955","DECAY_DATE":null,"OBJECT_NAME":"STARLINK-3225","BSTAR":"0.00276370000000","PERIAPSIS":"538.389","INCLINATION":"53.2190","NORAD_CAT_ID":"49737","EPOCH":"2022-04-07T22:00:00.999936","COUNTRY_CODE":"US","OBJECT_TYPE":"PAYLOAD","EPHEMERIS_TYPE":"0","CLASSIFICATION_TYPE":"U","LAUNCH_DATE":"2021-12-02","MEAN_ANOMALY":"96.7395","RCS_SIZE":"LARGE","OBJECT_ID":"2021-115P","ARG_OF_PERICENTER":"35.9432","CENTER_NAME":"EARTH","APOAPSIS":"541.250","TLE_LINE1":"1 49737U 21115P   22097.91667824  .00043942  00000-0  27637-2 0  9992","TLE_LINE2":"2 49737  53.2190  96.5905 0002068  35.9432  96.7395 15.08815667  3568","MEAN_MOTION":"15.08815667","MEAN_MOTION_DOT":"0.00043942","PERIOD":"95.439","SITE":"AFETR","MEAN_ELEMENT_THEORY":"SGP4","GP_ID":"200702188"}];
